NOAA 15                 
1 25338U 98030A   23137.43111159  .00000242  00000+0  11886-3 0  9996
2 25338  98.6079 167.0109 0011185  48.9037 311.3107 14.26314998300874
DMSP 5D-3 F15 (USA 147) 
1 25991U 99067A   23136.91878021  .00000210  00000+0  12822-3 0  9998
2 25991  99.0703 139.5918 0009465 329.2592  90.4201 14.16730581210980
DMSP 5D-3 F16 (USA 172) 
1 28054U 03048A   23137.45923796  .00000096  00000+0  74581-4 0  9998
2 28054  99.0116 135.4491 0008444  93.0824  69.4048 14.13808796 10212
NOAA 18                 
1 28654U 05018A   23137.40401117  .00000235  00000+0  14972-3 0  9998
2 28654  98.9099 211.9427 0015404 106.8751 253.4112 14.12935334927224
METEOSAT-9 (MSG-2)      
1 28912U 05049B   23136.83088260  .00000124  00000+0  00000+0 0  9995
2 28912   6.7777  63.9982 0002364 196.6714 318.4225  1.00274775 63742
EWS-G1 (GOES 13)        
1 29155U 06018A   23136.54722785  .00000036  00000+0  00000+0 0  9999
2 29155   1.4542  91.9156 0001525  87.1876 313.2057  1.00269273 32074
DMSP 5D-3 F17 (USA 191) 
1 29522U 06050A   23137.45728409  .00000120  00000+0  85728-4 0  9992
2 29522  98.7544 151.0729 0010685  36.5339 323.6561 14.14248166853114
FENGYUN 3A              
1 32958U 08026A   23137.46548560  .00000125  00000+0  80468-4 0  9994
2 32958  98.5533  92.3371 0009511 132.4071 227.7911 14.18866234775709
FENGYUN 2E              
1 33463U 08066A   23136.67946490 -.00000209  00000+0  00000+0 0  9999
2 33463   6.6508  63.2034 0001636 329.6004 172.7932  1.00271420 52784
NOAA 19                 
1 33591U 09005A   23137.37375190  .00000209  00000+0  13746-3 0  9990
2 33591  99.1020 182.8049 0013247 333.5560  26.4934 14.12753631735598
GOES 14                 
1 35491U 09033A   23136.65679997 -.00000069  00000+0  00000+0 0  9994
2 35491   0.2641 108.3932 0006052 312.7337 300.9716  1.00268761 50802
METEOR-M 1              
1 35865U 09049A   23137.45889966  .00000175  00000+0  97644-4 0  9996
2 35865  98.5782 103.0368 0002169   7.2940 352.8269 14.22494940709166
DMSP 5D-3 F18 (USA 210) 
1 35951U 09057A   23137.41727661  .00000292  00000+0  17714-3 0  9999
2 35951  98.7658 114.3620 0010350 211.0479 149.0083 14.13756669700299
GOES 15                 
1 36411U 10008A   23136.64886796  .00000130  00000+0  00000+0 0  9995
2 36411   0.2838  95.7492 0000906 291.1318 292.2776  1.00145611 48347
COMS 1                  
1 36744U 10032A   23136.96368852 -.00000346  00000+0  00000+0 0  9994
2 36744   1.9126  89.1460 0000760 324.7550 295.5835  1.00271324 47358
FENGYUN 3B              
1 37214U 10059A   23137.44273757  .00000098  00000+0  75110-4 0  9991
2 37214  99.0853 154.2920 0023044 131.2782   5.4934 14.14337276648161
SUOMI NPP               
1 37849U 11061A   23137.44813983  .00000089  00000+0  62744-4 0  9999
2 37849  98.7032  76.6902 0001248  70.6066  36.7567 14.19559910598574
FENGYUN 2F              
1 38049U 12002A   23137.46634308 -.00000358  00000+0  00000+0 0  9994
2 38049   4.6142  76.9378 0002146  55.0026  23.0794  1.00261401 41593
METEOSAT-10 (MSG-3)     
1 38552U 12035B   23137.32360421 -.00000007  00000+0  00000+0 0  9997
2 38552   2.1142  54.9371 0000093  50.2710 246.1313  1.00278098 39918
METOP-B                 
1 38771U 12049A   23137.40833543  .00000146  00000+0  86716-4 0  9990
2 38771  98.6802 197.2940 0001637 102.0641 321.2626 14.21511042553178
FENGYUN 3C              
1 39260U 13052A   23137.36471206  .00000126  00000+0  84680-4 0  9994
2 39260  98.4298 153.1319 0011811  37.6104 322.5895 14.16035000499172
METEOR-M 2              
1 40069U 14037A   23137.42508826  .00000083  00000+0  57633-4 0  9993
2 40069  98.4241 144.8293 0007018  75.2231 284.9724 14.20776837459285
HIMAWARI-8              
1 40267U 14060A   23137.49212455 -.00000277  00000+0  00000+0 0  9993
2 40267   0.0110 326.7334 0000505 105.9754 120.0403  1.00269809 31562
FENGYUN 2G              
1 40367U 14090A   23136.89052791 -.00000306  00000+0  00000+0 0  9998
2 40367   2.7781  85.9752 0002464  59.4270 149.4357  1.00274599 30694
METEOSAT-11 (MSG-4)     
1 40732U 15034A   23137.32757720  .00000063  00000+0  00000+0 0  9995
2 40732   0.5512  35.8276 0001121  61.6203 264.7057  1.00276999 28717
ELEKTRO-L 2             
1 41105U 15074A   23137.07688330 -.00000117  00000+0  00000+0 0  9997
2 41105   3.8321  84.1890 0000734  74.7059  88.7927  1.00270458 27216
HIMAWARI-9              
1 41836U 16064A   23137.49212453 -.00000276  00000+0  00000+0 0  9999
2 41836   0.0228  66.9598 0000792 358.9588 126.9394  1.00269143 24009
GOES 16                 
1 41866U 16071A   23137.02186073 -.00000251  00000+0  00000+0 0  9990
2 41866   0.0199  30.1840 0000308  38.8769  98.0792  1.00271702 23790
FENGYUN 4A              
1 41882U 16077A   23137.08591093 -.00000333  00000+0  00000+0 0  9993
2 41882   0.1026 295.8490 0004018 214.4016 219.8583  1.00276623 23684
CYGFM05                 
1 41884U 16078A   23136.76393076  .00005793  00000+0  26419-3 0  9991
2 41884  34.9552 281.7040 0013682 202.0496 157.9629 15.19896838355459
CYGFM04                 
1 41885U 16078B   23136.75808225  .00005990  00000+0  26834-3 0  9998
2 41885  34.9489 269.0022 0012408 221.2655 138.7121 15.20514160355511
CYGFM02                 
1 41886U 16078C   23136.74019714  .00006009  00000+0  26882-3 0  9990
2 41886  34.9573 271.4289 0012987 214.8466 145.1397 15.20555413355599
CYGFM01                 
1 41887U 16078D   23136.74481454  .00005731  00000+0  26303-3 0  9994
2 41887  34.9523 284.7817 0014144 200.6507 159.3635 15.19674326355398
CYGFM08                 
1 41888U 16078E   23136.75090668  .00006034  00000+0  27246-3 0  9993
2 41888  34.9487 275.7205 0013385 214.8404 145.1433 15.20230925355549
CYGFM07                 
1 41890U 16078G   23137.03583822  .00005096  00000+0  22762-3 0  9992
2 41890  34.9510 266.9590 0012130 221.7037 138.2752 15.20659580355712
CYGFM03                 
1 41891U 16078H   23136.71558527  .00005679  00000+0  25476-3 0  9993
2 41891  34.9539 269.6595 0011516 217.0019 142.9900 15.20489747355504
FENGYUN 3D              
1 43010U 17072A   23137.46606893  .00000095  00000+0  66571-4 0  9995
2 43010  98.8600  86.1043 0002390  58.0446 302.0961 14.19195241285142
NOAA 20                 
1 43013U 17073A   23137.46170576  .00000060  00000+0  49443-4 0  9994
2 43013  98.7515  76.3553 0001129 109.0173 251.1125 14.19549460284612
GOES 17                 
1 43226U 18022A   23136.65758444 -.00000093  00000+0  00000+0 0  9999
2 43226   0.0094  74.8650 0001960   2.2975 288.9463  1.00271326 19117
FENGYUN 2H              
1 43491U 18050A   23136.89662670 -.00000130  00000+0  00000+0 0  9997
2 43491   1.9989  91.5129 0002728  65.5835 119.2878  1.00271733 18130
METOP-C                 
1 43689U 18087A   23137.43288454  .00000140  00000+0  84012-4 0  9991
2 43689  98.6848 197.4388 0003706 137.2388 222.9079 14.21504354234754
GEO-KOMPSAT-2A          
1 43823U 18100A   23136.69837817 -.00000347  00000+0  00000+0 0  9997
2 43823   0.0534 101.8952 0002080 333.6262 178.2933  1.00269952 16324
METEOR-M2 2             
1 44387U 19038A   23137.46127688  .00000030  00000+0  32771-4 0  9991
2 44387  98.7738 101.4319 0002152  55.7195 304.4187 14.23780775200936
FENGYUN 3E              
1 49008U 21062A   23137.42461261  .00000004  00000+0  22336-4 0  9997
2 49008  98.7219 139.2963 0002733  92.2938 267.8551 14.19680272 96706
GOES 18                 
1 51850U 22021A   23136.98729892  .00000094  00000+0  00000+0 0  9996
2 51850   0.0185  77.7180 0000275 270.5113 104.6214  1.00270247  4508
NOAA 21 (JPSS-2)        
1 54234U 22150A   23136.84352112  .00000100  00000+0  68248-4 0  9991
2 54234  98.7152  75.2881 0001309 100.8168 259.3155 14.19543833 26605
METEOSAT-12             
1 54743U 22170C   23136.82103297 -.00000035  00000+0  00000+0 0  9999
2 54743   0.6543 308.0094 0003138 113.1894 105.0163  1.00272775  1670
